[{"OBJECT_NAME":"CENTISPACE-1 S13","OBJECT_ID":"2025-007H","EPOCH":"2026-03-09T23:09:05.132736","MEAN_MOTION":13.82892248,"ECCENTRICITY":0.0009712,"INCLINATION":54.9822,"RA_OF_ASC_NODE":278.4888,"ARG_OF_PERICENTER":239.9953,"MEAN_ANOMALY":120.0041,"EPHEMERIS_TYPE":0,"CLASSIFICATION_TYPE":"U","NORAD_CAT_ID":62582,"ELEMENT_SET_NO":999,"REV_AT_EPOCH":6102,"BSTAR":0.00010239415,"MEAN_MOTION_DOT":-2.9e-7,"MEAN_MOTION_DDOT":0},{"OBJECT_NAME":"SL-8 DEB","OBJECT_ID":"1990-036C","EPOCH":"2026-03-09T19:34:10.733664","MEAN_MOTION":13.84294859,"ECCENTRICITY":0.00220045,"INCLINATION":82.9348,"RA_OF_ASC_NODE":81.4989,"ARG_OF_PERICENTER":99.61,"MEAN_ANOMALY":78.7513,"EPHEMERIS_TYPE":0,"CLASSIFICATION_TYPE":"U","NORAD_CAT_ID":25057,"ELEMENT_SET_NO":999,"REV_AT_EPOCH":69751,"BSTAR":0.00045462922,"MEAN_MOTION_DOT":5.24e-6,"MEAN_MOTION_DDOT":0}]
